NORAD_CAT_ID,OBJECT_NAME,OBJECT_TYPE,EPOCH,MEAN_MOTION,ECCENTRICITY,INCLINATION,RA_OF_ASC_NODE,ARG_OF_PERICENTER,MEAN_ANOMALY,BSTAR,MEAN_MOTION_DOT,MEAN_MOTION_DDOT,TLE_LINE0,TLE_LINE1,TLE_LINE2,SEMIMAJOR_AXIS,PERIOD,APOGEE,PERIGEE,DECAYED
52089.0,STARLINK-3722,PAYLOAD,2024-04-29 14:21:46,15.08863531,0.0001283,53.2195,257.6809,83.9217,276.1922,0.0001886,2.717e-05,0.0,0 STARLINK-3722,1 52089U 22029B   24120.59845704  .00002717  00000-0  18860-3 0  9993,2 52089  53.2195 257.6809 0001283  83.9217 276.1922 15.08863531118135,6917.808,95.436,540.561,538.786,0.0
52089.0,STARLINK-3722,PAYLOAD,2024-04-29 19:07:56,15.08874867,0.0001294,53.2149,256.7862,79.2399,280.8739,0.0010696,0.00016792,0.0,0 STARLINK-3722,1 52089U 22029B   24120.79717948  .00016792  00000-0  10696-2 0  9999,2 52089  53.2149 256.7862 0001294  79.2399 280.8739 15.08874867118169,6917.774,95.435,540.534,538.744,0.0
52089.0,STARLINK-3722,PAYLOAD,2024-04-30 01:29:27,15.08899429,0.0001268,53.2155,255.5976,83.0389,277.0747,0.0011101,0.00017452,0.0,0 STARLINK-3722,1 52089U 22029B   24121.06212651  .00017452  00000-0  11101-2 0  9997,2 52089  53.2155 255.5976 0001268  83.0389 277.0747 15.08899429118205,6917.699,95.434,540.441,538.687,0.0
52089.0,STARLINK-3722,PAYLOAD,2024-04-30 12:37:10,15.0881321,0.000107,53.2161,253.5169,98.7998,261.3116,-0.0017952,-0.00028723,0.0,0 STARLINK-3722,1 52089U 22029B   24121.52582073 -.00028723  00000-0 -17952-2 0  9991,2 52089  53.2161 253.5169 0001070  98.7998 261.3116 15.08813210118271,6917.962,95.439,540.567,539.087,0.0
52089.0,STARLINK-3722,PAYLOAD,2024-04-30 14:12:34,15.08817956,0.0001406,53.2161,253.2206,109.3681,250.7463,-0.0012619,-0.00020303,0.0,0 STARLINK-3722,1 52089U 22029B   24121.59206027 -.00020303  00000-0 -12619-2 0  9991,2 52089  53.2161 253.2206 0001406 109.3681 250.7463 15.08817956118280,6917.948,95.439,540.785,538.84,0.0
52089.0,STARLINK-3722,PAYLOAD,2024-04-30 15:47:57,15.08823748,0.0001206,53.2155,252.9213,96.0308,264.0821,-0.00078576,-0.00012766,0.0,0 STARLINK-3722,1 52089U 22029B   24121.65830297 -.00012766  00000-0 -78576-3 0  9999,2 52089  53.2155 252.9213 0001206  96.0308 264.0821 15.08823748118296,6917.93,95.439,540.629,538.961,0.0
52089.0,STARLINK-3722,PAYLOAD,2024-05-01 01:20:17,15.08814867,0.0001078,53.2149,251.1372,97.3841,262.7274,0.0019734,0.00031237,0.0,0 STARLINK-3722,1 52089U 22029B   24122.05575696  .00031237  00000-0  19734-2 0  9995,2 52089  53.2149 251.1372 0001078  97.3841 262.7274 15.08814867118355,6917.957,95.439,540.568,539.076,0.0
52089.0,STARLINK-3722,PAYLOAD,2024-05-02 01:11:04,15.08862288,0.0001119,53.2155,246.6777,95.9051,264.2069,0.0017088,0.00027029,0.0,0 STARLINK-3722,1 52089U 22029B   24123.04935846  .00027029  00000-0  17088-2 0  9996,2 52089  53.2155 246.6777 0001119  95.9051 264.2069 15.08862288118509,6917.812,95.436,540.451,538.903,0.0
52089.0,STARLINK-3722,PAYLOAD,2024-05-02 12:18:46,15.08829546,0.000123,53.2153,244.5983,103.8562,256.2567,0.0013019,0.00020486,0.0,0 STARLINK-3722,1 52089U 22029B   24123.51304355  .00020486  00000-0  13019-2 0  9993,2 52089  53.2153 244.5983 0001230 103.8562 256.2567 15.08829546118574,6917.912,95.438,540.628,538.926,0.0
52089.0,STARLINK-3722,PAYLOAD,2024-05-02 13:54:10,15.08830615,0.0001289,53.2146,244.2989,95.6682,264.4457,0.0011522,0.00018092,0.0,0 STARLINK-3722,1 52089U 22029B   24123.57928406  .00018092  00000-0  11522-2 0  9995,2 52089  53.2146 244.2989 0001289  95.6682 264.4457 15.08830615118583,6917.909,95.438,540.666,538.882,0.0
52089.0,STARLINK-3722,PAYLOAD,2024-05-03 13:44:56,15.08861664,0.0001261,53.2152,239.8366,92.4863,267.6274,0.00081084,0.00012648,0.0,0 STARLINK-3722,1 52089U 22029B   24124.57287596  .00012648  00000-0  81084-3 0  9996,2 52089  53.2152 239.8366 0001261  92.4863 267.6274 15.08861664118732,6917.814,95.436,540.552,538.807,0.0
52089.0,STARLINK-3722,PAYLOAD,2024-05-03 15:20:19,15.0886067,0.0001066,53.2138,239.539,107.5784,252.5324,0.00060696,9.39e-05,0.0,0 STARLINK-3722,1 52089U 22029B   24124.63911375  .00009390  00000-0  60696-3 0  9998,2 52089  53.2138 239.5390 0001066 107.5784 252.5324 15.08860670118749,6917.817,95.436,540.42,538.945,0.0
52089.0,STARLINK-3722,PAYLOAD,2024-05-04 13:35:43,15.08819846,0.0001165,53.2142,235.3765,104.734,255.3781,-0.0005265,-8.653e-05,0.0,0 STARLINK-3722,1 52089U 22029B   24125.56647991 -.00008653  00000-0 -52650-3 0  9995,2 52089  53.2142 235.3765 0001165 104.7340 255.3781 15.08819846118883,6917.942,95.439,540.613,539.001,0.0
52089.0,STARLINK-3722,PAYLOAD,2024-05-05 11:51:08,15.08847813,0.0001111,53.2154,231.2146,99.3613,260.7504,0.0015035,0.00023726,0.0,0 STARLINK-3722,1 52089U 22029B   24126.49385101  .00023726  00000-0  15035-2 0  9991,2 52089  53.2154 231.2146 0001111  99.3613 260.7504 15.08847813119022,6917.857,95.437,540.49,538.953,0.0
52089.0,STARLINK-3722,PAYLOAD,2024-05-05 13:26:31,15.08851192,0.0001106,53.2156,230.9177,95.6286,264.4832,0.0016493,0.00026066,0.0,0 STARLINK-3722,1 52089U 22029B   24126.56009084  .00026066  00000-0  16493-2 0  9991,2 52089  53.2156 230.9177 0001106  95.6286 264.4832 15.08851192119034,6917.846,95.437,540.476,538.946,0.0
52089.0,STARLINK-3722,PAYLOAD,2024-05-06 13:17:18,15.08864747,0.0001079,53.2163,226.4569,85.4745,274.637,0.00089234,0.00013952,0.0,0 STARLINK-3722,1 52089U 22029B   24127.55368130  .00013952  00000-0  89234-3 0  9995,2 52089  53.2163 226.4569 0001079  85.4745 274.6370 15.08864747119189,6917.805,95.436,540.416,538.923,0.0
52089.0,STARLINK-3722,PAYLOAD,2024-05-07 13:08:05,15.08829115,0.0001032,53.2172,221.9967,99.4622,260.6487,-0.00022455,-3.859e-05,0.0,0 STARLINK-3722,1 52089U 22029B   24128.54728233 -.00003859  00000-0 -22455-3 0  9998,2 52089  53.2172 221.9967 0001032  99.4622 260.6487 15.08829115119330,6917.914,95.438,540.493,539.065,0.0
52089.0,STARLINK-3722,PAYLOAD,2024-05-08 12:58:52,15.08845935,9.67e-05,53.2162,217.5365,97.6054,262.5048,0.00098639,0.00015448,0.0,0 STARLINK-3722,1 52089U 22029B   24129.54089011  .00015448  00000-0  98639-3 0  9995,2 52089  53.2162 217.5365 0000967  97.6054 262.5048 15.08845935119485,6917.862,95.437,540.396,539.058,0.0
52089.0,STARLINK-3722,PAYLOAD,2024-05-09 12:49:39,15.08853807,0.0001015,53.2156,213.0774,94.0934,266.0174,0.00061227,9.473e-05,0.0,0 STARLINK-3722,1 52089U 22029B   24130.53448509  .00009473  00000-0  61227-3 0  9991,2 52089  53.2156 213.0774 0001015  94.0934 266.0174 15.08853807119639,6917.838,95.437,540.405,539.001,0.0
52089.0,STARLINK-3722,PAYLOAD,2024-05-10 12:40:27,15.08836155,9.56e-05,53.2142,208.6192,111.9932,248.1162,0.00015075,2.112e-05,0.0,0 STARLINK-3722,1 52089U 22029B   24131.52809035  .00002112  00000-0  15075-3 0  9999,2 52089  53.2142 208.6192 0000956 111.9932 248.1162 15.08836155119789,6917.892,95.438,540.418,539.096,0.0
52089.0,STARLINK-3722,PAYLOAD,2024-05-11 04:34:17,15.08859825,8.06e-05,53.2149,205.6379,106.8634,253.2446,0.00058359,9.017e-05,0.0,0 STARLINK-3722,1 52089U 22029B   24132.19048148  .00009017  00000-0  58359-3 0  9996,2 52089  53.2149 205.6379 0000806 106.8634 253.2446 15.08859825119888,6917.82,95.436,540.242,539.127,0.0
52089.0,STARLINK-3722,PAYLOAD,2024-05-11 12:31:10,15.08940391,0.0001164,53.2149,204.1591,82.1303,277.9821,0.0025798,0.00041123,0.0,0 STARLINK-3722,1 52089U 22029B   24132.52165390  .00041123  00000-0  25798-2 0  9996,2 52089  53.2149 204.1591 0001164  82.1303 277.9821 15.08940391119930,6917.574,95.431,540.244,538.633,0.0
52089.0,STARLINK-3722,PAYLOAD,2024-05-11 22:03:32,15.08824739,0.000193,53.2143,202.3731,78.2525,281.8684,-0.00089115,-0.00014437,0.0,0 STARLINK-3722,1 52089U 22029B   24132.91912243 -.00014437  00000-0 -89115-3 0  9990,2 52089  53.2143 202.3731 0001930  78.2525 281.8684 15.08824739119997,6917.927,95.439,541.127,538.457,0.0
52089.0,STARLINK-3722,PAYLOAD,2024-05-12 04:25:07,15.08704787,0.0002331,53.2141,201.1851,89.1194,271.0065,-0.0050289,-0.00079156,0.0,0 STARLINK-3722,1 52089U 22029B   24133.18411088 -.00079156  00000-0 -50289-2 0  9999,2 52089  53.2141 201.1851 0002331  89.1194 271.0065 15.08704787120035,6918.294,95.446,541.771,538.546,0.0
52089.0,STARLINK-3722,PAYLOAD,2024-05-12 10:46:43,15.08672243,0.0001066,53.2145,199.9935,112.5988,247.5116,-0.0037176,-0.00058701,0.0,0 STARLINK-3722,1 52089U 22029B   24133.44910924 -.00058701  00000-0 -37176-2 0  9994,2 52089  53.2145 199.9935 0001066 112.5988 247.5116 15.08672243120072,6918.393,95.448,540.996,539.521,0.0
52089.0,STARLINK-3722,PAYLOAD,2024-05-12 21:54:30,15.08715554,0.0001122,53.214,197.9106,103.2584,256.8533,0.0037213,0.00059232,0.0,0 STARLINK-3722,1 52089U 22029B   24133.91285054  .00059232  00000-0  37213-2 0  9995,2 52089  53.2140 197.9106 0001122 103.2584 256.8533 15.08715554120144,6918.261,95.445,540.902,539.35,0.0
52089.0,STARLINK-3722,PAYLOAD,2024-05-13 10:37:36,15.08818915,0.0001428,53.215,195.5309,106.9212,253.1937,0.0047972,0.00076848,0.0,0 STARLINK-3722,1 52089U 22029B   24134.44278002  .00076848  00000-0  47972-2 0  9994,2 52089  53.2150 195.5309 0001428 106.9212 253.1937 15.08818915120223,6917.945,95.439,540.798,538.822,0.0
52089.0,STARLINK-3722,PAYLOAD,2024-05-14 10:28:19,15.08913158,0.0001403,53.2146,191.071,96.7562,263.359,0.0008585,0.00013429,0.0,0 STARLINK-3722,1 52089U 22029B   24135.43633505  .00013429  00000-0  85850-3 0  9991,2 52089  53.2146 191.0710 0001403  96.7562 263.3590 15.08913158120371,6917.657,95.433,540.492,538.551,0.0
52089.0,STARLINK-3722,PAYLOAD,2024-05-14 13:39:05,15.08918527,0.0001402,53.215,190.4761,96.6753,263.4399,0.00093662,0.00014682,0.0,0 STARLINK-3722,1 52089U 22029B   24135.56880819  .00014682  00000-0  93662-3 0  9999,2 52089  53.2150 190.4761 0001402  96.6753 263.4399 15.08918527120390,6917.64,95.433,540.475,538.536,0.0
52089.0,STARLINK-3722,PAYLOAD,2024-05-15 10:19:01,15.08940835,0.0001379,53.215,186.6108,94.9682,265.1467,0.0010355,0.00016276,0.0,0 STARLINK-3722,1 52089U 22029B   24136.42987876  .00016276  00000-0  10355-2 0  9994,2 52089  53.2150 186.6108 0001379  94.9682 265.1467 15.08940835120524,6917.572,95.431,540.391,538.483,0.0
